{"type": "FeatureCollection", "features": [{"type": "Feature", "properties": {"name": "수원화성 역사문화환경보존지역"}, "geometry": {"type": "Polygon", "coordinates": [[[127.01599217446824, 37.272011457044485], [127.01479847764452, 37.27107724466095], [127.01337969095418, 37.2705436631659], [127.01186621025153, 37.27045975221792], [127.01131882671515, 37.27059890921725], [127.01039713439509, 37.27083322378654], [127.00910748114521, 37.271629753371414], [127.00862612359144, 37.27218618940711], [127.00811577814129, 37.27277613465028], [127.00680733832682, 37.274858440419216], [127.00605217437219, 37.275795115297406], [127.0051815141648, 37.27741273058787], [127.00498920430026, 37.27895239813812], [127.00495383017936, 37.27923560974663], [127.00495799056469, 37.279304299775], [127.00405003899142, 37.280688108043414], [127.00355251942982, 37.28200761626256], [127.00328523439893, 37.283388344348275], [127.00323220136224, 37.28366229984434], [127.00332171464724, 37.28426484676086], [127.00329237721552, 37.28452417542435], [127.00363082251282, 37.28610135528336], [127.00431351207932, 37.28725218456222], [127.00445381615506, 37.28748869914546], [127.00551693773042, 37.288757479571146], [127.00553957627088, 37.28879973570019], [127.00559821989967, 37.28885448562171], [127.00566997508346, 37.28894012170959], [127.00568050008447, 37.28893130272451], [127.00673257865078, 37.28991352739472], [127.00769312581858, 37.29034615560703], [127.00767776961116, 37.29038154060845], [127.00852224530608, 37.290748021982125], [127.00890002255507, 37.290990786425354], [127.00904100371382, 37.291078113637916], [127.00908914193262, 37.291106838115326], [127.0099284787475, 37.29201112031213], [127.01116659167866, 37.29298133483553], [127.01235511063142, 37.29364103785328], [127.01378674750157, 37.294169348987886], [127.01531106021689, 37.2942412345141], [127.01678606229271, 37.293849998448174], [127.01844446083142, 37.29312432481052], [127.01961264269167, 37.29237562995813], [127.01997826138555, 37.29233087786488], [127.02042886628634, 37.29261999245242], [127.02056691938795, 37.29270543743898], [127.02189363821896, 37.29349708244848], [127.02342856560361, 37.29409673611211], [127.0237596341609, 37.29411043313051], [127.02507506078668, 37.29416485515973], [127.02665427575837, 37.29369404026445], [127.02737291512516, 37.29334219906629], [127.02854787813031, 37.29254192546404], [127.02900318233895, 37.29198753401624], [127.02945012520851, 37.29144332357445], [127.03000671957565, 37.29013520331529], [127.03017266667959, 37.28872331186739], [127.03014502670393, 37.28764578796337], [127.02975828496768, 37.28584190138153], [127.02908333680857, 37.28423090902453], [127.02882796771401, 37.28329315838007], [127.02881010832417, 37.283227576229784], [127.02776907372439, 37.28127227451893], [127.02687361324132, 37.2802359596902], [127.02597795541107, 37.27917780682466], [127.02565148486956, 37.27882758803249], [127.025193969583, 37.2783816525174], [127.0250381804557, 37.277720533732214], [127.02451067217119, 37.276383122682944], [127.02414878369459, 37.275920882454386], [127.02362441066215, 37.275251100667894], [127.02307161114923, 37.27472326576272], [127.02191311689691, 37.27389704202354], [127.02056879543369, 37.27343061474804], [127.01862032341718, 37.27305348695054], [127.01641526080691, 37.27262669590684], [127.01625732746355, 37.272397034200424], [127.01599217446824, 37.272011457044485]]]}}]}